ID,Address,Suburb,Price,Type,Date,Rooms,Bathroom,Car,LandSize,Age,Latitude,Longitude,train_station_id,distance_to_train_station,travel_min_to_CBD,over_priced?,crime_A_average,crime_B_average,crime_C_average,closest_primary_school,distance_to_closest_primary,primary_school_ranking,closest_secondary_school,distance_to_closest_secondary,secondary_school_ranking
ID999591958,18 Carlsberg Rd,EAGLEMONT,3300000.0,h,29/07/2017,4,2.0,3.0,1783.0,59.0,-37.76457,145.06555,19935,937.9457414049342,29.823529411764707,False,1666.0,9333.666666666666,523.0,St John's School,776.3004713685436,489,Our Lady of Mercy College,760.5525230561901,90
ID903715984,22 Reid St,MURRUMBEENA,1620000.0,h,8/07/2017,3,2.0,1.0,669.0,104.0,-37.90583,145.07283,19918,1289.79185341109,27.35483870967742,False,298.0,735.0,154.0,Hughesdale Primary School,422.3832948757992,221,Sacred Heart Girls' College,1233.5580029009227,93
ID649551858,28 Moubray St,ALBERT PARK,2015000.0,h,3/06/2017,2,1.0,2.0,178.0,129.0,-37.84098,144.95115,20043,2523.7512440543633,0.0,False,1214.6666666666667,5603.666666666667,375.3333333333333,Albert Park Primary School,174.09068844704635,306,Albert Park College,539.3414677504716,131
ID374846776,49 Bellett St,CAMBERWELL,2513000.0,h,13/05/2017,4,2.0,3.0,696.0,109.0,-37.8355,145.0665,19851,334.725310822344,24.666666666666668,False,3767.6666666666665,18925.0,2042.3333333333333,Camberwell Primary School,806.488925548405,35,Camberwell High School,814.4833701426808,112
ID522446669,1/17 Cosy Gum Rd,CARNEGIE,750000.0,u,8/07/2017,2,1.0,2.0,0.0,49.0,-37.88368,145.0515,19920,683.8693258146169,23.375,False,3767.6666666666665,18925.0,2042.3333333333333,St Anthony's School,526.4525054166543,485,Glen Eira College,1206.6760960339575,215
ID114338979,1 Athol St,MOONEE PONDS,1350000.0,h,10/09/2016,4,2.0,2.0,447.0,139.0,-37.7704,144.9199,20038,526.4835032324478,22.0,True,278.0,489.0,65.0,Ascot Vale Primary School,700.0358225623588,249,Lowther Hall Anglican Grammar School,1245.7889625151633,not ranked
ID193141105,44 Thompson St,ORMOND,1250000.0,t,10/09/2016,3,2.0,2.0,326.0,19.0,-37.903,145.0285,19941,976.4296987881287,32.15384615384615,False,268.3333333333333,736.0,128.33333333333334,Divrei Emineh,581.8725944580993,not ranked,Divrei Emineh,581.8725944580993,not ranked
ID275837460,23/146 Power St,HAWTHORN,320000.0,u,3/12/2016,1,1.0,0.0,0.0,69.0,-37.8235,145.0258,19905,315.92529584098827,13.952380952380953,False,1150.6666666666667,7827.0,922.3333333333334,Erasmus Primary School,628.6918084416877,not ranked,Melbourne Girls College,1014.251027776725,61
ID915992751,14 Tuck St,CHELTENHAM,1199000.0,h,24/06/2017,3,2.0,2.0,552.0,54.0,-37.97069000000001,145.05928,19866,611.539484529148,42.125,True,1288.3333333333333,4242.333333333333,480.0,Cheltenham Primary School,468.9037941774704,258,Mentone Girls Secondary College,1171.8923150917606,121
ID376152921,33 Dunbarton Dr,WANTIRNA,908000.0,h,29/07/2017,4,2.0,1.0,815.0,39.0,-37.84839,145.24191000000005,19871,2245.9540663212356,41.083333333333336,False,256.0,511.3333333333333,54.666666666666664,St Luke's School,818.6490650213221,not ranked,Heathmont College,1404.7466434143323,433
ID658234060,2059 Malvern Rd,MALVERN EAST,1380000.0,h,8/04/2017,3,1.0,2.0,572.0,109.0,-37.8757,145.066,19920,1342.5932277520835,23.375,False,717.3333333333334,1763.0,318.6666666666667,Solway Primary School,659.7611820970197,278,Korowa Anglican Girls' School,1874.0087764317773,13
ID281304456,40 Coates St,BENTLEIGH,680000.0,t,27/11/2016,2,1.0,1.0,83.0,21.0,-37.9259,145.0341,19938,146.4829588892144,36.84615384615385,False,925.6666666666666,4701.333333333333,308.6666666666667,St Paul's School,731.7439847813117,211,Our Lady of the Sacred Heart College,513.3510597771595,73
ID857738309,30 Stennis St,PASCOE VALE,770000.0,h,3/12/2016,3,1.0,0.0,464.0,59.0,-37.7301,144.9487,19964,1301.921648870557,34.0,False,659.0,5219.333333333333,338.3333333333333,St Oliver Plunkett's School,608.9554753806002,not ranked,Antonine College,1341.642042677305,482
ID895664286,3/1 Elm St,HAWTHORN,480000.0,u,13/08/2016,1,1.0,1.0,0.0,79.0,-37.8128,145.0171,19905,1126.7371839401574,13.952380952380953,False,1150.6666666666667,7827.0,922.3333333333334,Hawthorn West Primary School,821.6606704140636,125,Melbourne Girls College,1107.5927033353605,61
ID543032458,4/5 Southey Ct,ELWOOD,717000.0,u,12/06/2016,2,1.0,1.0,0.0,69.0,-37.8758,144.9874,19955,688.6796688151943,19.5,False,1566.6666666666667,8895.333333333334,491.0,Yesodei HaTorah College,447.2293977421284,277,Yesodei HaTorah College,447.2293977421284,38
ID363273230,115/150 Peel St,NORTH MELBOURNE,470000.0,u,7/11/2016,2,1.0,1.0,0.0,13.0,-37.8044,144.9566,19842,811.1770402828085,4.7444444444444445,False,71.0,261.0,20.0,North Melbourne Primary School,820.385205538234,182,Simonds Catholic College,370.7517093098723,262
ID615689160,63 Lovell Dr,ST ALBANS,600000.0,h,24/06/2017,3,1.0,3.0,565.0,49.0,-37.76454,144.80611000000005,20003,839.7324935899056,29.375,False,1479.3333333333333,4398.666666666667,502.0,Holy Eucharist School,1015.479080985205,not ranked,St Albans Secondary College,2125.5846282119205,179
ID228153276,21 Hughes St,BRAYBROOK,575000.0,h,10/12/2016,3,1.0,3.0,559.0,64.0,-37.7923,144.852,20022,1235.142711014767,21.4,False,2744.3333333333335,10289.666666666666,780.0,Dinjerra Primary School,368.4107452180883,not ranked,Caroline Chisholm Catholic College,736.3263550083798,235
ID994264224,103 Longview Rd,BALWYN NORTH,2000000.0,h,13/05/2017,4,2.0,2.0,627.0,64.0,-37.7848,145.0788,19934,3218.7719744939486,29.0,True,959.0,4476.666666666667,324.0,Belle Vue Primary School,253.7987503257636,299,Marcellin College,1166.1250318831928,169
ID380923535,9/80 Hobsons Rd,KENSINGTON,855000.0,t,3/06/2017,3,2.0,1.0,68.0,44.0,-37.79554,144.91679,20026,883.2652756315534,6.4,False,288.0,712.0,75.66666666666667,Kensington Primary School,1004.3844509084873,116,Kensington Community High School,1148.5070745138405,558
ID218291141,254 Neerim Rd,CARNEGIE,1350000.0,h,6/08/2016,2,2.0,2.0,265.0,99.0,-37.8881,145.0537,19920,475.6432644438577,23.375,False,3703.6666666666665,18944.0,2039.3333333333333,Carnegie Primary School,302.1584137257077,77,Glen Eira College,1404.4283973573945,215
ID868735946,12 Stanley St,WEST FOOTSCRAY,756000.0,h,13/08/2016,3,1.0,1.0,353.0,94.0,-37.7915,144.8733,20022,1254.6363120122862,21.4,True,268.3333333333333,736.0,128.33333333333334,Footscray West Primary School,412.81659359645226,399,Footscray City College,1822.7178192739038,166
ID132049554,7a Woorigoleen Rd,TOORAK,2650000.0,t,10/09/2016,3,3.0,2.0,0.0,19.0,-37.8428,145.0171,19946,930.8969080343329,18.214285714285715,False,584.3333333333334,2731.6666666666665,211.66666666666666,St Catherine's School,621.0413362823057,117,St Catherine's School,621.0413362823057,35
ID702886510,4/425 Station St,BOX HILL,880000.0,h,4/03/2017,4,2.0,2.0,206.0,16.0,-37.828,145.1215,20042,977.199968225972,25.775,False,2897.3333333333335,11243.0,942.0,Kingswood College,588.6699145269174,53,Kingswood College,588.6699145269174,106
ID693638021,34 Acland St,ST KILDA,1301000.0,h,13/05/2017,2,1.0,1.0,165.0,109.0,-37.8658,144.9774,19956,1474.1939039450806,17.5,False,1412.0,6364.0,699.3333333333334,St Kilda Park Primary School,855.9499426098188,73,Yesodei HaTorah College,984.8895804278045,38
ID762543556,5/13 Toward St,MURRUMBEENA,690000.0,t,4/06/2016,2,1.0,1.0,129.0,94.0,-37.8927,145.0691,19919,317.04676954785634,25.375,False,268.3333333333333,736.0,128.33333333333334,Murrumbeena Primary School,735.9408396151026,80,Oakleigh Grammar,1256.9136988832915,270
ID186539491,604/353 Napier St,FITZROY,830000.0,u,8/07/2017,2,2.0,1.0,4421.0,8.0,-37.79721,144.98073,19975,1226.2573771558873,13.235294117647058,False,330.3333333333333,1855.0,82.0,Fitzroy Primary School,275.09722341960924,not ranked,Academy of Mary Immaculate,912.5858233536214,144
ID661021125,1/16 Leake St,ESSENDON,1170000.0,u,19/11/2016,4,2.0,2.0,0.0,6.0,-37.7465,144.91,20036,966.0709379890271,27.0,False,334.6666666666667,1407.6666666666667,88.33333333333333,St Therese's School,514.0032175555764,387,Buckley Park College,1080.0040959490645,123
ID189905167,3/145 Glen Huntly Rd,ELWOOD,670000.0,u,16/07/2016,2,2.0,1.0,0.0,49.0,-37.883,144.9916,19954,839.8775716640197,21.5,False,1566.6666666666667,8895.333333333334,491.0,Elwood Primary School,329.4386161298778,309,Elwood College,567.1100544071653,175
ID313178277,8 Mawson St,KEW,4515000.0,h,13/05/2017,5,4.0,2.0,800.0,7.0,-37.8147,145.0571,19903,1309.251762814029,17.904761904761905,False,288.0,712.0,75.66666666666667,"Preshil, The Margaret Lyttle Memorial School",451.2636237607168,not ranked,"Preshil, The Margaret Lyttle Memorial School",451.2636237607168,not ranked
ID424273743,4/64 Edward St,SANDRINGHAM,760000.0,u,17/06/2017,3,1.0,1.0,178.0,16.0,-37.96224,145.01683,19948,1707.990508796321,33.5,False,101.66666666666667,251.33333333333334,18.666666666666668,Sandringham East Primary School,780.1260100751807,295,Sandringham College,821.9312713638242,304
ID323804835,23 Grange Rd,KEW,4850000.0,h,12/11/2016,5,4.0,4.0,957.0,89.0,-37.8112,145.05700000000004,19903,1586.3181892126663,17.904761904761905,False,271.6666666666667,771.6666666666666,74.0,Genazzano FCJ College,270.0211173711929,40,Genazzano FCJ College,270.0211173711929,33
ID298950729,2 Elgar Rd,BURWOOD,1300000.0,h,4/06/2016,3,1.0,1.0,667.0,69.0,-37.8489,145.1093,19849,2547.7947925208637,28.666666666666668,False,958.6666666666666,5673.0,628.0,Presbyterian Ladies' College,205.5292669391457,1,Presbyterian Ladies' College,205.5292669391457,6
ID830802723,5/21 Cumming St,BRUNSWICK WEST,656000.0,u,18/03/2017,2,1.0,1.0,0.0,49.0,-37.7609,144.9425,19967,1600.7232463324476,27.333333333333332,False,941.3333333333334,5813.0,575.6666666666666,St Joseph's School,160.37891571172833,113,Brunswick Secondary College,1565.5009768589557,211
